GLOBALSTAR M045         
1 25676U 99019A   24230.92553414 -.00000111  00000+0 -15733-3 0  9994
2 25676  51.9965  89.6170 0001004  43.3933  59.3817 12.27043343156165
GLOBALSTAR M019         
1 25677U 99019B   24230.36151767 -.00000076  00000+0  14076-3 0  9996
2 25677  51.9848 200.2126 0001125  53.8522 112.3904 12.13859307148249
GLOBALSTAR M044         
1 25678U 99019C   24230.11491284 -.00000060  00000+0  33634-3 0  9995
2 25678  51.9959 114.2195 0006092 167.1487 340.6363 11.90236516135112
GLOBALSTAR M042         
1 25679U 99019D   24230.85796781 -.00000063  00000+0  27338-3 0  9994
2 25679  51.9993 187.2486 0003206  32.1616 344.2478 12.22067332148174
GLOBALSTAR M025         
1 25770U 99031A   24230.93309895 -.00000054  00000+0  42494-3 0  9995
2 25770  51.9803 141.7794 0002013   7.3621  72.9319 11.22552460447652
GLOBALSTAR M049         
1 25771U 99031B   24230.18833878 -.00000094  00000+0 -99083-3 0  9997
2 25771  51.9853 162.9893 0002576 229.7144 130.3427 11.12107047 83603
GLOBALSTAR M047         
1 25772U 99031C   24230.81203265 -.00000075  00000+0 -14040-3 0  9998
2 25772  51.9805 187.5293 0016199 100.5073 259.7559 11.31921990436753
GLOBALSTAR M052         
1 25773U 99031D   24230.54128279 -.00000025  00000+0  13568-2 0  9997
2 25773  51.9852 275.1409 0002340  29.1620 148.9608 11.15052798444639
